0 ARIANE 2 DEB
1 33572U 89006BQ  13279.64819558 -.00000176  00000-0  00000+0 0  1290
2 33572 007.7326 294.1188 7002032 086.7850 010.5248 02.23234161 61425
0 ARIANE 2 DEB
1 33572U 89006BQ  13293.52121744 -.00000199  00000-0  00000+0 0  1303
2 33572 007.7107 289.5132 7002633 095.8879 359.3922 02.23235360 61737
